[{"OBJECT_NAME":"STARLINK-35361","OBJECT_ID":"2025-211R","EPOCH":"2026-03-09T16:24:14.874336","MEAN_MOTION":15.0564104,"ECCENTRICITY":0.00016434,"INCLINATION":97.6034,"RA_OF_ASC_NODE":114.1032,"ARG_OF_PERICENTER":109.8514,"MEAN_ANOMALY":250.289,"EPHEMERIS_TYPE":0,"CLASSIFICATION_TYPE":"U","NORAD_CAT_ID":65667,"ELEMENT_SET_NO":999,"REV_AT_EPOCH":2704,"BSTAR":0.00020859662,"MEAN_MOTION_DOT":2.95e-5,"MEAN_MOTION_DDOT":0},{"OBJECT_NAME":"CZ-4B R\/B","OBJECT_ID":"2008-053C","EPOCH":"2026-03-09T16:52:55.405920","MEAN_MOTION":15.20774751,"ECCENTRICITY":0.00860777,"INCLINATION":97.7895,"RA_OF_ASC_NODE":133.277,"ARG_OF_PERICENTER":241.1085,"MEAN_ANOMALY":118.1494,"EPHEMERIS_TYPE":0,"CLASSIFICATION_TYPE":"U","NORAD_CAT_ID":33410,"ELEMENT_SET_NO":999,"REV_AT_EPOCH":94950,"BSTAR":0.00029822835,"MEAN_MOTION_DOT":7.181e-5,"MEAN_MOTION_DDOT":0}]
